{
  "norad_id": 46780,
  "name": "STARLINK-1832",
  "history": [
    {
      "epoch": "2026-04-10T12:00:02.000160Z",
      "apogee_km": 297.9438391663107,
      "perigee_km": 291.25508813514807,
      "latitude_deg": -41.324777178351994,
      "longitude_deg": 47.2307795343387,
      "height_km": 309.27010786329623,
      "semi_major_axis_km": 6672.736463650729,
      "eccentricity": 0.0005012,
      "inclination_deg": 53.0339,
      "raan_deg": 107.1225,
      "arg_perigee_deg": 51.7286,
      "mean_anomaly_deg": 252.9336,
      "mean_motion_rev_day": 15.92747025
    },
    {
      "epoch": "2026-04-11T20:00:01.000224Z",
      "apogee_km": 294.71828282257775,
      "perigee_km": 288.74341520343296,
      "latitude_deg": 28.722839740069386,
      "longitude_deg": -15.544049644282753,
      "height_km": 290.5387537604283,
      "semi_major_axis_km": 6669.867849013005,
      "eccentricity": 0.0004479,
      "inclination_deg": 53.0334,
      "raan_deg": 100.2954,
      "arg_perigee_deg": 63.0565,
      "mean_anomaly_deg": 333.8188,
      "mean_motion_rev_day": 15.93774662
    },
    {
      "epoch": "2026-04-13T06:00:02.000160Z",
      "apogee_km": 292.3327735856319,
      "perigee_km": 286.31818903049407,
      "latitude_deg": -49.613283555443424,
      "longitude_deg": 43.200709650204836,
      "height_km": 309.3853076684016,
      "semi_major_axis_km": 6667.462481308063,
      "eccentricity": 0.00045104,
      "inclination_deg": 53.033,
      "raan_deg": 93.0365,
      "arg_perigee_deg": 69.4616,
      "mean_anomaly_deg": 182.4975,
      "mean_motion_rev_day": 15.946372
    },
    {
      "epoch": "2026-04-14T22:00:01.998720Z",
      "apogee_km": 289.28075081448696,
      "perigee_km": 283.6838035455112,
      "latitude_deg": 49.37348679916824,
      "longitude_deg": 30.650225561830176,
      "height_km": 289.52860862290936,
      "semi_major_axis_km": 6664.619277179999,
      "eccentricity": 0.0004199,
      "inclination_deg": 53.0324,
      "raan_deg": 84.4789,
      "arg_perigee_deg": 86.3417,
      "mean_anomaly_deg": 22.242,
      "mean_motion_rev_day": 15.95657745
    },
    {
      "epoch": "2026-04-15T20:00:01.999008Z",
      "apogee_km": 287.57573418919947,
      "perigee_km": 282.196009522464,
      "latitude_deg": -17.29914323692262,
      "longitude_deg": -77.70894223257915,
      "height_km": 290.7585072169577,
      "semi_major_axis_km": 6663.022871855832,
      "eccentricity": 0.0004037,
      "inclination_deg": 53.0322,
      "raan_deg": 79.7683,
      "arg_perigee_deg": 93.984,
      "mean_anomaly_deg": 244.4343,
      "mean_motion_rev_day": 15.96231239
    },
    {
      "epoch": "2026-04-16T22:00:01.998720Z",
      "apogee_km": 285.5507511693904,
      "perigee_km": 280.1939674426367,
      "latitude_deg": 53.175300803661585,
      "longitude_deg": -12.693927081039698,
      "height_km": 286.77262758262054,
      "semi_major_axis_km": 6661.009359306013,
      "eccentricity": 0.0004021,
      "inclination_deg": 53.0329,
      "raan_deg": 74.1958,
      "arg_perigee_deg": 103.1783,
      "mean_anomaly_deg": 345.7373,
      "mean_motion_rev_day": 15.96955065
    }
  ]
}